{
  "houses": [
    {
      "name": "ghgchggh",
      "ownerName": "cxncgbg",
      "address": "xfgf",
      "areaCode": "425201",
      "rent": "5555",
      "bachelor": "",
      "married": "married",
      "image": "fdgzfdg",
      "id": 1
    },
    {
      "name": "DANISH AHMED GULAM MOHAMMED",
      "ownerName": "scd",
      "address": "dd",
      "areaCode": "1325",
      "rent": "321",
      "bachelor": "bachelor",
      "married": "",
      "image": "dvd",
      "id": 2
    },
    {
      "name": "zdv",
      "ownerName": "dv",
      "address": "xdv",
      "areaCode": "513",
      "rent": "351",
      "bachelor": "bachelor",
      "married": "",
      "image": "xdv",
      "id": 3
    },
    {
      "name": "DANISH AHMED GULAM MOHAMMED",
      "ownerName": "",
      "address": "",
      "areaCode": "",
      "rent": "",
      "bachelor": "",
      "married": "",
      "image": "",
      "id": 4
    },
    {
      "name": "DANISH AHMED GULAM MOHAMMED",
      "ownerName": "MBMB",
      "address": "JMBM",
      "areaCode": "5435",
      "rent": "5413",
      "bachelor": "bachelor",
      "married": "married",
      "image": "NBB",
      "id": 5
    },
    {
      "name": "FDG",
      "ownerName": "DFGFD",
      "address": "DFFD",
      "areaCode": "21",
      "rent": "3551321",
      "bachelor": "bachelor",
      "married": "",
      "image": "GX",
      "id": 6
    },
    {
      "name": "roshan",
      "ownerName": "hvnmv",
      "address": "mvn",
      "areaCode": "643",
      "rent": "54645",
      "bachelor": "bachelor",
      "married": "",
      "image": "hvnv",
      "id": 7
    },
    {
      "name": "DANISH AHMED GULAM MOHAMMED",
      "ownerName": "sd",
      "address": "sdf",
      "areaCode": "3213",
      "rent": "3222222",
      "bachelor": "bachelor",
      "married": "",
      "image": "dfD",
      "id": 8
    },
    {
      "name": "ttttt",
      "ownerName": "ttttttt",
      "address": "tttttttttttt",
      "areaCode": "62",
      "rent": "",
      "bachelor": "",
      "married": "",
      "image": "",
      "id": 9
    },
    {
      "name": "ttttt",
      "ownerName": "ttttttt",
      "address": "tttttttttttt",
      "areaCode": "6232",
      "rent": "3213",
      "bachelor": "bachelor",
      "married": "",
      "image": "szdf",
      "id": 10
    }
  ]
}